CCSDS_OMM_VERS,COMMENT,CREATION_DATE,ORIGINATOR,OBJECT_NAME,OBJECT_ID,CENTER_NAME,REF_FRAME,TIME_SYSTEM,MEAN_ELEMENT_THEORY,EPOCH,MEAN_MOTION,ECCENTRICITY,INCLINATION,RA_OF_ASC_NODE,ARG_OF_PERICENTER,MEAN_ANOMALY,EPHEMERIS_TYPE,CLASSIFICATION_TYPE,NORAD_CAT_ID,ELEMENT_SET_NO,REV_AT_EPOCH,BSTAR,MEAN_MOTION_DOT,MEAN_MOTION_DDOT,SEMIMAJOR_AXIS,PERIOD,APOAPSIS,PERIAPSIS,OBJECT_TYPE,RCS_SIZE,COUNTRY_CODE,LAUNCH_DATE,SITE,DECAY_DATE,FILE,GP_ID,TLE_LINE0,TLE_LINE1,TLE_LINE2
"2.0","GENERATED VIA SPACE-TRACK.ORG API","2020-10-21T19:12:42","18 SPCS","CZ-4 DEB","1999-057SK","EARTH","TEME","UTC","SGP4","2020-10-19T20:44:02.478048","14.46986776","0.01161350","98.6996","311.8718","171.4775","312.4564","0","U","35331","999","93517","0.00016142000000","0.00000586","0.0000000000000","7113.644","99.517","818.123","652.894","DEBRIS","SMALL","PRC","1999-10-14","TSC","","2857849","163962844","0 CZ-4 DEB","1 35331U 99057SK  20293.86391757 +.00000586 +00000-0 +16142-3 0  9993","2 35331 098.6996 311.8718 0116135 171.4775 312.4564 14.46986776935170"
"2.0","GENERATED VIA SPACE-TRACK.ORG API","2020-10-20T14:45:42","18 SPCS","ORBCOMM FM 30","1999-065A","EARTH","TEME","UTC","SGP4","2020-10-19T04:30:25.788672","14.32922341","0.00043890","45.0323","186.0415","165.4172","194.6802","0","U","25980","999","9010","0.00008559600000","0.00000095","0.0000000000000","7160.116","100.493","785.123","778.838","PAYLOAD","MEDIUM","ORB","1999-12-04","AFETR","","2857293","163865014","0 ORBCOMM FM 30","1 25980U 99065A   20293.18779848 +.00000095 +00000-0 +85596-4 0  9992","2 25980 045.0323 186.0415 0004389 165.4172 194.6802 14.32922341090109"
"2.0","GENERATED VIA SPACE-TRACK.ORG API","2020-10-19T03:25:22","18 SPCS","ORBCOMM FM 30","1999-065A","EARTH","TEME","UTC","SGP4","2020-10-18T21:48:50.487552","14.32922232","0.00043690","45.0323","187.3521","164.0945","196.0039","0","U","25980","999","9006","0.00008454400000","0.00000092","0.0000000000000","7160.116","100.493","785.109","778.853","PAYLOAD","MEDIUM","ORB","1999-12-04","AFETR","","2856318","163763939","0 ORBCOMM FM 30","1 25980U 99065A   20292.90891768 +.00000092 +00000-0 +84544-4 0  9996","2 25980 045.0323 187.3521 0004369 164.0945 196.0039 14.32922232090064"
"2.0","GENERATED VIA SPACE-TRACK.ORG API","2020-10-19T03:25:22","18 SPCS","CZ-4 DEB","1999-057SK","EARTH","TEME","UTC","SGP4","2020-10-18T21:29:27.272256","14.46985459","0.01160830","98.6997","310.8768","174.3811","307.5998","0","U","35331","999","35725","0.00015910000000","0.00000577","0.0000000000000","7113.648","99.517","818.090","652.936","DEBRIS","SMALL","PRC","1999-10-14","TSC","","2856318","163768837","0 CZ-4 DEB","1 35331U 99057SK  20292.89545454 +.00000577 +00000-0 +15910-3 0  9992","2 35331 098.6997 310.8768 0116083 174.3811 307.5998 14.46985459357250"
"2.0","GENERATED VIA SPACE-TRACK.ORG API","2020-10-19T06:16:10","18 SPCS","CZ-4 DEB","1999-057SK","EARTH","TEME","UTC","SGP4","2020-10-18T21:29:27.272256","14.46985459","0.01160830","98.6997","310.8768","174.3811","307.5998","0","U","35331","999","93503","0.00015910000000","0.00000577","0.0000000000000","7113.648","99.517","818.090","652.936","DEBRIS","SMALL","PRC","1999-10-14","TSC","","2856369","163797391","0 CZ-4 DEB","1 35331U 99057SK  20292.89545454  .00000577  00000-0  15910-3 0  9992","2 35331  98.6997 310.8768 0116083 174.3811 307.5998 14.46985459935038"
"2.0","GENERATED VIA SPACE-TRACK.ORG API","2020-10-18T22:26:10","18 SPCS","ORBCOMM FM 30","1999-065A","EARTH","TEME","UTC","SGP4","2020-10-18T20:08:26.660544","14.32922224","0.00043630","45.0323","187.6798","163.7636","196.3351","0","U","25980","999","9058","0.00008549300000","0.00000095","0.0000000000000","7160.116","100.493","785.105","778.857","PAYLOAD","MEDIUM","ORB","1999-12-04","AFETR","","2856075","163749165","0 ORBCOMM FM 30","1 25980U 99065A   20292.83919746  .00000095  00000-0  85493-4 0  9992","2 25980  45.0323 187.6798 0004363 163.7636 196.3351 14.32922224 90588"
"2.0","GENERATED VIA SPACE-TRACK.ORG API","2020-10-18T17:43:10","18 SPCS","ORBCOMM FM 30","1999-065A","EARTH","TEME","UTC","SGP4","2020-10-18T10:06:03.708864","14.32922054","0.00043220","45.0323","189.6458","161.6203","198.4801","0","U","25980","999","8999","0.00008435600000","0.00000092","0.0000000000000","7160.117","100.493","785.076","778.887","PAYLOAD","MEDIUM","ORB","1999-12-04","AFETR","","2855958","163732377","0 ORBCOMM FM 30","1 25980U 99065A   20292.42087626 +.00000092 +00000-0 +84356-4 0  9994","2 25980 045.0323 189.6458 0004322 161.6203 198.4801 14.32922054089992"
"2.0","GENERATED VIA SPACE-TRACK.ORG API","2020-10-18T03:40:11","18 SPCS","ORBCOMM FM 30","1999-065A","EARTH","TEME","UTC","SGP4","2020-10-17T20:42:53.097984","14.32921855","0.00042860","45.0323","192.2671","158.6803","201.4223","0","U","25980","999","8991","0.00008530800000","0.00000094","0.0000000000000","7160.117","100.493","785.051","778.914","PAYLOAD","MEDIUM","ORB","1999-12-04","AFETR","","2855330","163697237","0 ORBCOMM FM 30","1 25980U 99065A   20291.86311456 +.00000094 +00000-0 +85308-4 0  9992","2 25980 045.0323 192.2671 0004286 158.6803 201.4223 14.32921855089913"
"2.0","GENERATED VIA SPACE-TRACK.ORG API","2020-10-17T14:26:10","18 SPCS","ORBCOMM FM 30","1999-065A","EARTH","TEME","UTC","SGP4","2020-10-17T10:40:30.131616","14.32921654","0.00042380","45.0323","194.2331","156.6381","203.4659","0","U","25980","999","9038","0.00008262700000","0.00000087","0.0000000000000","7160.118","100.493","785.017","778.949","PAYLOAD","MEDIUM","ORB","1999-12-04","AFETR","","2854839","163657125","0 ORBCOMM FM 30","1 25980U 99065A   20291.44479319  .00000087  00000-0  82627-4 0  9992","2 25980  45.0323 194.2331 0004238 156.6381 203.4659 14.32921654 90389"
"2.0","GENERATED VIA SPACE-TRACK.ORG API","2020-10-18T03:40:11","18 SPCS","CZ-4 DEB","1999-057SK","EARTH","TEME","UTC","SGP4","2020-10-17T07:01:35.253696","14.46983403","0.01159930","98.6999","309.2301","179.1907","238.9973","0","U","35331","999","35702","0.00015830000000","0.00000574","0.0000000000000","7113.655","99.517","818.033","653.006","DEBRIS","SMALL","PRC","1999-10-14","TSC","","2855330","163703131","0 CZ-4 DEB","1 35331U 99057SK  20291.29276914 +.00000574 +00000-0 +15830-3 0  9995","2 35331 098.6999 309.2301 0115993 179.1907 238.9973 14.46983403357027"
"2.0","GENERATED VIA SPACE-TRACK.ORG API","2020-10-17T17:24:27","18 SPCS","ORBCOMM FM 30","1999-065A","EARTH","TEME","UTC","SGP4","2020-10-17T03:58:54.822720","14.32921516","0.00042180","45.0323","195.5438","155.1854","204.9196","0","U","25980","999","8981","0.00008209000000","0.00000086","0.0000000000000","7160.118","100.493","785.004","778.963","PAYLOAD","MEDIUM","ORB","1999-12-04","AFETR","","2855076","163671660","0 ORBCOMM FM 30","1 25980U 99065A   20291.16591230 +.00000086 +00000-0 +82090-4 0  9991","2 25980 045.0323 195.5438 0004218 155.1854 204.9196 14.32921516089813"
"2.0","GENERATED VIA SPACE-TRACK.ORG API","2020-10-17T03:43:13","18 SPCS","ORBCOMM FM 30","1999-065A","EARTH","TEME","UTC","SGP4","2020-10-16T21:17:19.501728","14.32921413","0.00041960","45.0323","196.8543","153.8218","206.2842","0","U","25980","999","8977","0.00008172700000","0.00000085","0.0000000000000","7160.119","100.493","784.988","778.979","PAYLOAD","MEDIUM","ORB","1999-12-04","AFETR","","2854247","163628094","0 ORBCOMM FM 30","1 25980U 99065A   20290.88703127 +.00000085 +00000-0 +81727-4 0  9994","2 25980 045.0323 196.8543 0004196 153.8218 206.2842 14.32921413089772"
"2.0","GENERATED VIA SPACE-TRACK.ORG API","2020-10-17T03:43:13","18 SPCS","CZ-4 DEB","1999-057SK","EARTH","TEME","UTC","SGP4","2020-10-16T19:56:33.324864","14.46982836","0.01159610","98.6999","308.7556","180.5770","353.2760","0","U","35331","999","35695","0.00015908000000","0.00000577","0.0000000000000","7113.657","99.517","818.012","653.031","DEBRIS","SMALL","PRC","1999-10-14","TSC","","2854247","163637723","0 CZ-4 DEB","1 35331U 99057SK  20290.83094126 +.00000577 +00000-0 +15908-3 0  9996","2 35331 098.6999 308.7556 0115961 180.5770 353.2760 14.46982836356957"
"2.0","GENERATED VIA SPACE-TRACK.ORG API","2020-10-16T18:12:41","18 SPCS","ORBCOMM FM 30","1999-065A","EARTH","TEME","UTC","SGP4","2020-10-16T12:55:20.355456","14.32921231","0.00041610","45.0323","198.4927","151.9997","208.1074","0","U","25980","999","8972","0.00007982500000","0.00000079","0.0000000000000","7160.119","100.494","784.964","779.005","PAYLOAD","MEDIUM","ORB","1999-12-04","AFETR","","2853949","163602600","0 ORBCOMM FM 30","1 25980U 99065A   20290.53843004 +.00000079 +00000-0 +79825-4 0  9994","2 25980 045.0323 198.4927 0004161 151.9997 208.1074 14.32921231089722"
"2.0","GENERATED VIA SPACE-TRACK.ORG API","2020-10-16T14:16:09","18 SPCS","CZ-4 DEB","1999-057SK","EARTH","TEME","UTC","SGP4","2020-10-16T07:34:46.192224","14.46982209","0.01159330","98.7000","308.2263","182.1223","189.9052","0","U","35331","999","93465","0.00015880000000","0.00000576","0.0000000000000","7113.659","99.517","817.994","653.053","DEBRIS","SMALL","PRC","1999-10-14","TSC","","2853677","163589741","0 CZ-4 DEB","1 35331U 99057SK  20290.31581241  .00000576  00000-0  15880-3 0  9996","2 35331  98.7000 308.2263 0115933 182.1223 189.9052 14.46982209934652"
"2.0","GENERATED VIA SPACE-TRACK.ORG API","2020-10-16T06:36:10","18 SPCS","ORBCOMM FM 30","1999-065A","EARTH","TEME","UTC","SGP4","2020-10-16T04:33:21.209184","14.32921072","0.00041390","45.0323","200.1311","150.1149","209.9935","0","U","25980","999","9020","0.00008036100000","0.00000081","0.0000000000000","7160.120","100.494","784.949","779.021","PAYLOAD","MEDIUM","ORB","1999-12-04","AFETR","","2853338","163582022","0 ORBCOMM FM 30","1 25980U 99065A   20290.18982881  .00000081  00000-0  80361-4 0  9992","2 25980  45.0323 200.1311 0004139 150.1149 209.9935 14.32921072 90208"
